ONEWEB-0264             
1 48982U 21060R   24065.42167148  .00000027  00000+0  36696-4 0  9992
2 48982  87.9092  34.7180 0001935  80.7192 279.4158 13.16594695129889
ONEWEB-0266             
1 48984U 21060T   24065.44305107  .00000167  00000+0  40445-3 0  9996
2 48984  87.9092  34.6939 0001818  86.9297 273.2042 13.16594530129877
ONEWEB-0267             
1 48985U 21060U   24065.45411742  .00000060  00000+0  12435-3 0  9991
2 48985  87.9092  34.6929 0002122  72.1913 287.9450 13.16596064129888
ONEWEB-0268             
1 48986U 21060V   24065.42246336  .00000073  00000+0  15745-3 0  9995
2 48986  87.9091  34.7051 0002085  81.3802 278.7565 13.16593290130146
ONEWEB-0269             
1 48987U 21060W   24065.40346370 -.00000025  00000+0 -10012-3 0  9994
2 48987  87.9095  34.7312 0001972  85.8951 274.2405 13.16595363129919
ONEWEB-0270             
1 48988U 21060X   24065.42086897  .00000073  00000+0  15818-3 0  9992
2 48988  87.9089  34.7150 0001750  63.6131 296.5179 13.16592145129955
ONEWEB-0271             
1 48989U 21060Y   24065.40821101 -.00000036  00000+0 -12879-3 0  9991
2 48989  87.9093  34.6929 0002000  70.8337 289.3010 13.16594744129952
ONEWEB-0272             
1 48990U 21060Z   24065.43037979  .00000115  00000+0  26666-3 0  9993
2 48990  87.9092  34.7159 0002011  74.7960 285.3393 13.16594628129902
